start=new Date('2021-12-26T00:00:00.000Z').valueOf();
sats=[{"MEAN_MOTION_DOT":"0.00000027","CLASSIFICATION_TYPE":"U","CENTER_NAME":"EARTH","NORAD_CAT_ID":"47633","MEAN_ANOMALY":"269.8920","OBJECT_TYPE":"PAYLOAD","TLE_LINE2":"2 47633  53.0529 122.2020 0001423  90.2232 269.8920 15.06400340 48658","COUNTRY_CODE":"US","OBJECT_NAME":"STARLINK-2009","MEAN_MOTION_DDOT":"0.0000000000000","PERIOD":"95.592","SITE":"AFETR","ELEMENT_SET_NO":"999","EPHEMERIS_TYPE":"0","APOAPSIS":"548.198","REF_FRAME":"TEME","MEAN_ELEMENT_THEORY":"SGP4","TIME_SYSTEM":"UTC","LAUNCH_DATE":"2021-02-16","DECAY_DATE":null,"EPOCH":"2021-12-25T18:08:28.232448","FILE":"3250974","GP_ID":"192457263","PERIAPSIS":"546.227","OBJECT_ID":"2021-012P","BSTAR":"0.00002068300000","INCLINATION":"53.0529","RCS_SIZE":"LARGE","REV_AT_EPOCH":"4865","TLE_LINE1":"1 47633U 21012P   21359.75588232  .00000027  00000-0  20683-4 0  9991","ARG_OF_PERICENTER":"90.2232","ECCENTRICITY":"0.00014230","SEMIMAJOR_AXIS":"6925.348","RA_OF_ASC_NODE":"122.2020","MEAN_MOTION":"15.06400340"},{"PERIOD":"95.593","MEAN_MOTION_DDOT":"0.0000000000000","SITE":"AFETR","TLE_LINE2":"2 47634  53.0532 121.7126 0001555 101.5141 258.6022 15.06392069 48641","OBJECT_TYPE":"PAYLOAD","OBJECT_NAME":"STARLINK-2010","COUNTRY_CODE":"US","MEAN_MOTION_DOT":"-0.00000305","NORAD_CAT_ID":"47634","MEAN_ANOMALY":"258.6022","CENTER_NAME":"EARTH","CLASSIFICATION_TYPE":"U","TIME_SYSTEM":"UTC","LAUNCH_DATE":"2021-02-16","REF_FRAME":"TEME","MEAN_ELEMENT_THEORY":"SGP4","ELEMENT_SET_NO":"999","APOAPSIS":"548.315","EPHEMERIS_TYPE":"0","RCS_SIZE":"LARGE","INCLINATION":"53.0532","OBJECT_ID":"2021-012Q","BSTAR":"-0.00000159650000","GP_ID":"192457515","PERIAPSIS":"546.161","FILE":"3250974","EPOCH":"2021-12-25T20:47:42.082656","DECAY_DATE":null,"SEMIMAJOR_AXIS":"6925.373","RA_OF_ASC_NODE":"121.7126","MEAN_MOTION":"15.06392069","ARG_OF_PERICENTER":"101.5141","ECCENTRICITY":"0.00015550","REV_AT_EPOCH":"4864","TLE_LINE1":"1 47634U 21012Q   21359.86645929 -.00000305  00000-0 -15965-5 0  9990"},{"REF_FRAME":"TEME","MEAN_ELEMENT_THEORY":"SGP4","ELEMENT_SET_NO":"999","EPHEMERIS_TYPE":"0","APOAPSIS":"548.332","TIME_SYSTEM":"UTC","LAUNCH_DATE":"2021-02-16","OBJECT_TYPE":"PAYLOAD","TLE_LINE2":"2 47635  53.0567  26.4727 0001474  75.7217   4.4854 15.06368272 49464","COUNTRY_CODE":"US","OBJECT_NAME":"STARLINK-2012","MEAN_MOTION_DOT":"0.00045751","CLASSIFICATION_TYPE":"U","CENTER_NAME":"EARTH","NORAD_CAT_ID":"47635","MEAN_ANOMALY":"4.4854","MEAN_MOTION_DDOT":"0.0000000000000","PERIOD":"95.594","SITE":"AFETR","REV_AT_EPOCH":"4946","TLE_LINE1":"1 47635U 21012R   21359.91667824  .00045751  00000-0  30731-2 0  9992","RA_OF_ASC_NODE":"26.4727","SEMIMAJOR_AXIS":"6925.446","MEAN_MOTION":"15.06368272","ARG_OF_PERICENTER":"75.7217","ECCENTRICITY":"0.00014740","GP_ID":"192431817","PERIAPSIS":"546.290","EPOCH":"2021-12-25T22:00:00.999936","DECAY_DATE":null,"FILE":"3250804","INCLINATION":"53.0567","RCS_SIZE":"LARGE","OBJECT_ID":"2021-012R","BSTAR":"0.00307310000000"},{"SITE":"AFETR","PERIOD":"95.593","MEAN_MOTION_DDOT":"0.0000000000000","COUNTRY_CODE":"US","OBJECT_NAME":"STARLINK-2013","TLE_LINE2":"2 47636  53.0565 102.9439 0005669 135.6293 224.5151 15.06394285 48886","OBJECT_TYPE":"PAYLOAD","NORAD_CAT_ID":"47636","CENTER_NAME":"EARTH","MEAN_ANOMALY":"224.5151","CLASSIFICATION_TYPE":"U","MEAN_MOTION_DOT":"0.00000774","LAUNCH_DATE":"2021-02-16","TIME_SYSTEM":"UTC","MEAN_ELEMENT_THEORY":"SGP4","REF_FRAME":"TEME","EPHEMERIS_TYPE":"0","APOAPSIS":"551.157","ELEMENT_SET_NO":"999","RCS_SIZE":"LARGE","INCLINATION":"53.0565","BSTAR":"0.00007097700000","OBJECT_ID":"2021-012S","PERIAPSIS":"543.305","GP_ID":"192427800","FILE":"3250775","DECAY_DATE":null,"EPOCH":"2021-12-25T14:06:58.688064","SEMIMAJOR_AXIS":"6925.366","RA_OF_ASC_NODE":"102.9439","MEAN_MOTION":"15.06394285","ECCENTRICITY":"0.00056690","ARG_OF_PERICENTER":"135.6293","TLE_LINE1":"1 47636U 21012S   21359.58817926  .00000774  00000-0  70977-4 0  9990","REV_AT_EPOCH":"4888"},{"LAUNCH_DATE":"2021-02-16","TIME_SYSTEM":"UTC","EPHEMERIS_TYPE":"0","APOAPSIS":"548.276","ELEMENT_SET_NO":"999","MEAN_ELEMENT_THEORY":"SGP4","REF_FRAME":"TEME","SITE":"AFETR","MEAN_MOTION_DDOT":"0.0000000000000","PERIOD":"95.593","CLASSIFICATION_TYPE":"U","NORAD_CAT_ID":"47637","MEAN_ANOMALY":"251.6967","CENTER_NAME":"EARTH","MEAN_MOTION_DOT":"-0.00002514","COUNTRY_CODE":"US","OBJECT_NAME":"STARLINK-2014","OBJECT_TYPE":"PAYLOAD","TLE_LINE2":"2 47637  53.0548 102.4871 0001477 108.4183 251.6967 15.06386985 48910","ECCENTRICITY":"0.00014770","ARG_OF_PERICENTER":"108.4183","RA_OF_ASC_NODE":"102.4871","SEMIMAJOR_AXIS":"6925.388","MEAN_MOTION":"15.06386985","TLE_LINE1":"1 47637U 21012T   21359.69137716 -.00002514  00000-0 -15002-3 0  9998","REV_AT_EPOCH":"4891","BSTAR":"-0.00015002000000","OBJECT_ID":"2021-012T","INCLINATION":"53.0548","RCS_SIZE":"LARGE","DECAY_DATE":null,"EPOCH":"2021-12-25T16:35:34.986624","FILE":"3250974","PERIAPSIS":"546.231","GP_ID":"192456764"},{"SITE":"AFETR","PERIOD":"95.592","MEAN_MOTION_DDOT":"0.0000000000000","COUNTRY_CODE":"US","OBJECT_NAME":"STARLINK-2015","TLE_LINE2":"2 47638  53.0525  26.6785 0002411  35.0633 325.0514 15.06397915 49966","OBJECT_TYPE":"PAYLOAD","CENTER_NAME":"EARTH","NORAD_CAT_ID":"47638","MEAN_ANOMALY":"325.0514","CLASSIFICATION_TYPE":"U","MEAN_MOTION_DOT":"0.00000814","LAUNCH_DATE":"2021-02-16","TIME_SYSTEM":"UTC","MEAN_ELEMENT_THEORY":"SGP4","REF_FRAME":"TEME","APOAPSIS":"548.890","EPHEMERIS_TYPE":"0","ELEMENT_SET_NO":"999","RCS_SIZE":"LARGE","INCLINATION":"53.0525","BSTAR":"0.00007354000000","OBJECT_ID":"2021-012U","PERIAPSIS":"545.550","GP_ID":"192458015","FILE":"3250974","EPOCH":"2021-12-25T21:18:52.735104","DECAY_DATE":null,"MEAN_MOTION":"15.06397915","SEMIMAJOR_AXIS":"6925.355","RA_OF_ASC_NODE":"26.6785","ECCENTRICITY":"0.00024110","ARG_OF_PERICENTER":"35.0633","TLE_LINE1":"1 47638U 21012U   21359.88811036  .00000814  00000-0  73540-4 0  9995","REV_AT_EPOCH":"4996"},{"GP_ID":"192457764","PERIAPSIS":"546.403","EPOCH":"2021-12-25T19:14:48.926688","DECAY_DATE":null,"FILE":"3250974","INCLINATION":"53.0550","RCS_SIZE":"LARGE","OBJECT_ID":"2021-012V","BSTAR":"0.00006395700000","REV_AT_EPOCH":"4890","TLE_LINE1":"1 47639U 21012V   21359.80195517  .00000671  00000-0  63957-4 0  9999","SEMIMAJOR_AXIS":"6925.370","MEAN_MOTION":"15.06393123","RA_OF_ASC_NODE":"101.9815","ARG_OF_PERICENTER":"89.6691","ECCENTRICITY":"0.00012010","OBJECT_TYPE":"PAYLOAD","TLE_LINE2":"2 47639  53.0550 101.9815 0001201  89.6691 270.4436 15.06393123 48907","COUNTRY_CODE":"US","OBJECT_NAME":"STARLINK-2016","MEAN_MOTION_DOT":"0.00000671","CLASSIFICATION_TYPE":"U","NORAD_CAT_ID":"47639","CENTER_NAME":"EARTH","MEAN_ANOMALY":"270.4436","MEAN_MOTION_DDOT":"0.0000000000000","PERIOD":"95.593","SITE":"AFETR","REF_FRAME":"TEME","MEAN_ELEMENT_THEORY":"SGP4","ELEMENT_SET_NO":"999","APOAPSIS":"548.066","EPHEMERIS_TYPE":"0","TIME_SYSTEM":"UTC","LAUNCH_DATE":"2021-02-16"},{"RCS_SIZE":"LARGE","INCLINATION":"53.0538","BSTAR":"0.00018818000000","OBJECT_ID":"2021-012W","PERIAPSIS":"546.055","GP_ID":"192456514","FILE":"3250974","EPOCH":"2021-12-25T20:42:24.023520","DECAY_DATE":null,"SEMIMAJOR_AXIS":"6925.344","MEAN_MOTION":"15.06401484","RA_OF_ASC_NODE":"121.7266","ECCENTRICITY":"0.00016660","ARG_OF_PERICENTER":"97.3822","TLE_LINE1":"1 47640U 21012W   21359.86277805  .00002523  00000-0  18818-3 0  9991","REV_AT_EPOCH":"4865","SITE":"AFETR","PERIOD":"95.592","MEAN_MOTION_DDOT":"0.0000000000000","COUNTRY_CODE":"US","OBJECT_NAME":"STARLINK-2018","TLE_LINE2":"2 47640  53.0538 121.7266 0001666  97.3822 262.7357 15.06401484 48650","OBJECT_TYPE":"PAYLOAD","NORAD_CAT_ID":"47640","CENTER_NAME":"EARTH","MEAN_ANOMALY":"262.7357","CLASSIFICATION_TYPE":"U","MEAN_MOTION_DOT":"0.00002523","LAUNCH_DATE":"2021-02-16","TIME_SYSTEM":"UTC","MEAN_ELEMENT_THEORY":"SGP4","REF_FRAME":"TEME","EPHEMERIS_TYPE":"0","APOAPSIS":"548.363","ELEMENT_SET_NO":"999"},{"REV_AT_EPOCH":"359","TLE_LINE1":"1 47641U 21012X   21359.91667824  .00042974  00000-0  28877-2 0  9991","SEMIMAJOR_AXIS":"6925.401","RA_OF_ASC_NODE":"26.4713","MEAN_MOTION":"15.06382977","ARG_OF_PERICENTER":"88.4617","ECCENTRICITY":"0.00013970","GP_ID":"192457264","PERIAPSIS":"546.298","FILE":"3250974","EPOCH":"2021-12-25T22:00:00.999936","DECAY_DATE":null,"RCS_SIZE":"LARGE","INCLINATION":"53.0553","OBJECT_ID":"2021-012X","BSTAR":"0.00288770000000","REF_FRAME":"TEME","MEAN_ELEMENT_THEORY":"SGP4","ELEMENT_SET_NO":"999","EPHEMERIS_TYPE":"0","APOAPSIS":"548.233","TIME_SYSTEM":"UTC","LAUNCH_DATE":"2021-02-16","TLE_LINE2":"2 47641  53.0553  26.4713 0001397  88.4617 146.5845 15.06382977  3590","OBJECT_TYPE":"PAYLOAD","COUNTRY_CODE":"US","OBJECT_NAME":"STARLINK-2019","MEAN_MOTION_DOT":"0.00042974","MEAN_ANOMALY":"146.5845","NORAD_CAT_ID":"47641","CENTER_NAME":"EARTH","CLASSIFICATION_TYPE":"U","PERIOD":"95.593","MEAN_MOTION_DDOT":"0.0000000000000","SITE":"AFETR"},{"TIME_SYSTEM":"UTC","LAUNCH_DATE":"2021-02-16","REF_FRAME":"TEME","MEAN_ELEMENT_THEORY":"SGP4","ELEMENT_SET_NO":"999","APOAPSIS":"548.150","EPHEMERIS_TYPE":"0","PERIOD":"95.592","MEAN_MOTION_DDOT":"0.0000000000000","SITE":"AFETR","TLE_LINE2":"2 47642  53.0541 117.0318 0001343 101.3226 258.7914 15.06397956 48706","OBJECT_TYPE":"PAYLOAD","COUNTRY_CODE":"US","OBJECT_NAME":"STARLINK-2020","MEAN_MOTION_DOT":"0.00000480","MEAN_ANOMALY":"258.7914","NORAD_CAT_ID":"47642","CENTER_NAME":"EARTH","CLASSIFICATION_TYPE":"U","SEMIMAJOR_AXIS":"6925.355","MEAN_MOTION":"15.06397956","RA_OF_ASC_NODE":"117.0318","ARG_OF_PERICENTER":"101.3226","ECCENTRICITY":"0.00013430","REV_AT_EPOCH":"4870","TLE_LINE1":"1 47642U 21012Y   21359.80241115  .00000480  00000-0  51102-4 0  9996","RCS_SIZE":"LARGE","INCLINATION":"53.0541","OBJECT_ID":"2021-012Y","BSTAR":"0.00005110200000","GP_ID":"192457516","PERIAPSIS":"546.290","FILE":"3250974","EPOCH":"2021-12-25T19:15:28.323360","DECAY_DATE":null}];
